{
  "type": "FeatureCollection",
  "generator": "overpass-turbo",
  "copyright": "The data included in this document is from www.openstreetmap.org. The data is made available under ODbL.",
  "timestamp": "2026-05-09T00:02:44Z",
  "features": [
    {
      "type": "Feature",
      "properties": {
        "@id": "way/130330646",
        "building": "university",
        "name": "C Building Geoffrey Blainey Auditorium",
        "source": "Bing",
        "page": "buildings/C_Building/Level_0.html"
      },
      "geometry": {
        "type": "Polygon",
        "coordinates": [
          [
            [
              143.8910919,
              -37.6259938
            ],
            [
              143.8910832,
              -37.6260565
            ],
            [
              143.8909851,
              -37.6261326
            ],
            [
              143.891007,
              -37.6261516
            ],
            [
              143.8910301,
              -37.6262565
            ],
            [
              143.8911009,
              -37.626249
            ],
            [
              143.8911093,
              -37.6262877
            ],
            [
              143.8911813,
              -37.6262959
            ],
            [
              143.8912105,
              -37.6262959
            ],
            [
              143.8912348,
              -37.6262917
            ],
            [
              143.8912639,
              -37.6262795
            ],
            [
              143.891288,
              -37.6262627
            ],
            [
              143.8913052,
              -37.626245
            ],
            [
              143.8913139,
              -37.626218
            ],
            [
              143.8913209,
              -37.6261551
            ],
            [
              143.8913339,
              -37.6260845
            ],
            [
              143.8913385,
              -37.6260555
            ],
            [
              143.8913435,
              -37.6260173
            ],
            [
              143.8910919,
              -37.6259938
            ]
          ]
        ]
      },
      "id": "C"
    },
    {
      "type": "Feature",
      "properties": {
        "@id": "way/130330647",
        "building": "university",
        "description": "Swimming Pool, Gym",
        "name": "P Building",
        "source": "Bing",
        "page": "buildings/P_Building/Level_1.html"
      },
      "geometry": {
        "type": "Polygon",
        "coordinates": [
          [
            [
              143.8906929,
              -37.6253223
            ],
            [
              143.8906158,
              -37.6254483
            ],
            [
              143.8906744,
              -37.6254707
            ],
            [
              143.8906447,
              -37.625648
            ],
            [
              143.8906141,
              -37.6258437
            ],
            [
              143.8909984,
              -37.6258806
            ],
            [
              143.8909961,
              -37.6259043
            ],
            [
              143.8909999,
              -37.6259201
            ],
            [
              143.8910063,
              -37.6259304
            ],
            [
              143.8910135,
              -37.6259407
            ],
            [
              143.8910259,
              -37.6259518
            ],
            [
              143.8910433,
              -37.62596
            ],
            [
              143.8910699,
              -37.6259678
            ],
            [
              143.8910739,
              -37.6259414
            ],
            [
              143.8913038,
              -37.6259631
            ],
            [
              143.891319,
              -37.6258653
            ],
            [
              143.8912738,
              -37.6258613
            ],
            [
              143.8912809,
              -37.6258196
            ],
            [
              143.8914129,
              -37.6258318
            ],
            [
              143.8914201,
              -37.6258313
            ],
            [
              143.8914498,
              -37.625812
            ],
            [
              143.8915122,
              -37.6252747
            ],
            [
              143.8915259,
              -37.6251654
            ],
            [
              143.8911816,
              -37.6251328
            ],
            [
              143.8911622,
              -37.6252545
            ],
            [
              143.8909392,
              -37.6252349
            ],
            [
              143.8909259,
              -37.6253389
            ],
            [
              143.8909083,
              -37.6253648
            ],
            [
              143.8908933,
              -37.6253886
            ],
            [
              143.8906929,
              -37.6253223
            ]
          ]
        ]
      },
      "id": "P"
    },
    {
      "type": "Feature",
      "properties": {
        "@id": "way/130330650",
        "building": "university",
        "layer": "1",
        "name": "B Building",
        "source": "Bing",
        "page": "buildings/B_Building/Level_0.html"
      },
      "geometry": {
        "type": "Polygon",
        "coordinates": [
          [
            [
              143.8914244,
              -37.6260069
            ],
            [
              143.8914222,
              -37.626022
            ],
            [
              143.8914028,
              -37.626147
            ],
            [
              143.8914631,
              -37.626151
            ],
            [
              143.891466,
              -37.6261296
            ],
            [
              143.8918369,
              -37.626166
            ],
            [
              143.8918406,
              -37.6261404
            ],
            [
              143.8918435,
              -37.6261221
            ],
            [
              143.891867,
              -37.6259397
            ],
            [
              143.8916891,
              -37.6259224
            ],
            [
              143.8916733,
              -37.6260244
            ],
            [
              143.8915187,
              -37.6260087
            ],
            [
              143.8915185,
              -37.626016
            ],
            [
              143.8914836,
              -37.6260122
            ],
            [
              143.8914847,
              -37.6259898
            ],
            [
              143.8914832,
              -37.6259847
            ],
            [
              143.8914795,
              -37.6259804
            ],
            [
              143.8914759,
              -37.6259777
            ],
            [
              143.8914695,
              -37.6259745
            ],
            [
              143.8914646,
              -37.6259732
            ],
            [
              143.8914603,
              -37.6259727
            ],
            [
              143.8914553,
              -37.6259727
            ],
            [
              143.8914492,
              -37.6259737
            ],
            [
              143.891443,
              -37.6259752
            ],
            [
              143.8914379,
              -37.6259778
            ],
            [
              143.8914339,
              -37.6259813
            ],
            [
              143.8914302,
              -37.6259859
            ],
            [
              143.891428,
              -37.6259914
            ],
            [
              143.8914264,
              -37.6260073
            ],
            [
              143.8914244,
              -37.6260069
            ]
          ]
        ]
      },
      "id": "B"
    },
    {
      "type": "Feature",
      "properties": {
        "@id": "way/130330656",
        "amenity": "library",
        "building": "yes",
        "layer": "1",
        "name": "L Building: E J Barker Library",
        "opening_hours": "Mo-Fr 09:00-17:00",
        "source": "Bing",
        "page": "buildings/L_Building/Level_0.html"
      },
      "geometry": {
        "type": "Polygon",
        "coordinates": [
          [
            [
              143.8919387,
              -37.6258118
            ],
            [
              143.8919181,
              -37.6259489
            ],
            [
              143.8918947,
              -37.6259485
            ],
            [
              143.8918614,
              -37.6261639
            ],
            [
              143.8921719,
              -37.6261958
            ],
            [
              143.8924009,
              -37.6262181
            ],
            [
              143.8924549,
              -37.626223
            ],
            [
              143.8924756,
              -37.6260596
            ],
            [
              143.8924835,
              -37.6259796
            ],
            [
              143.89242,
              -37.6259737
            ],
            [
              143.8924216,
              -37.6259602
            ],
            [
              143.8923731,
              -37.6259562
            ],
            [
              143.8923419,
              -37.6259532
            ],
            [
              143.8923435,
              -37.6259308
            ],
            [
              143.8922606,
              -37.6259215
            ],
            [
              143.8922518,
              -37.6259588
            ],
            [
              143.8921776,
              -37.6259499
            ],
            [
              143.8921839,
              -37.6259117
            ],
            [
              143.892229,
              -37.6259157
            ],
            [
              143.8922371,
              -37.6258526
            ],
            [
              143.892192,
              -37.6258503
            ],
            [
              143.8921936,
              -37.6258377
            ],
            [
              143.8919387,
              -37.6258118
            ]
          ]
        ]
      },
      "id": "L"
    },
    {
      "type": "Feature",
      "properties": {
        "@id": "way/130330659",
        "building": "university",
        "name": "U Building: Albert Coates Complex",
        "source": "Bing",
        "page": "buildings/U_Building/Level_0.html"
      },
      "geometry": {
        "type": "Polygon",
        "coordinates": [
          [
            [
              143.8924956,
              -37.6258949
            ],
            [
              143.8924835,
              -37.6259796
            ],
            [
              143.8924756,
              -37.6260596
            ],
            [
              143.8925403,
              -37.6260673
            ],
            [
              143.8925499,
              -37.6260682
            ],
            [
              143.8928521,
              -37.626103
            ],
            [
              143.8928425,
              -37.6261591
            ],
            [
              143.8928373,
              -37.6261944
            ],
            [
              143.8929624,
              -37.6261574
            ],
            [
              143.8929701,
              -37.6260994
            ],
            [
              143.8931907,
              -37.6261206
            ],
            [
              143.8931231,
              -37.6260449
            ],
            [
              143.8931832,
              -37.6259969
            ],
            [
              143.8932349,
              -37.6260009
            ],
            [
              143.8932462,
              -37.625923
            ],
            [
              143.893341,
              -37.6259323
            ],
            [
              143.8933502,
              -37.6258702
            ],
            [
              143.8933273,
              -37.6258482
            ],
            [
              143.8933524,
              -37.6258322
            ],
            [
              143.893321,
              -37.6258032
            ],
            [
              143.8931834,
              -37.6257895
            ],
            [
              143.8931608,
              -37.6257686
            ],
            [
              143.8929856,
              -37.6257542
            ],
            [
              143.8928829,
              -37.6258184
            ],
            [
              143.892654,
              -37.6257946
            ],
            [
              143.8924956,
              -37.6258949
            ]
          ]
        ]
      },
      "id": "U"
    },
    {
      "type": "Feature",
      "properties": {
        "@id": "way/130330660",
        "building": "university",
        "name": "E Building",
        "source": "Bing",
        "page": "buildings/E_Building/Level_1.html"
      },
      "geometry": {
        "type": "Polygon",
        "coordinates": [
          [
            [
              143.8935426,
              -37.6259727
            ],
            [
              143.8935233,
              -37.6260941
            ],
            [
              143.8935208,
              -37.6261097
            ],
            [
              143.8940818,
              -37.6261661
            ],
            [
              143.894351,
              -37.6261932
            ],
            [
              143.8943483,
              -37.6262068
            ],
            [
              143.894336,
              -37.6262816
            ],
            [
              143.8943525,
              -37.6262837
            ],
            [
              143.8943682,
              -37.6262858
            ],
            [
              143.8943692,
              -37.6262922
            ],
            [
              143.8946229,
              -37.6263171
            ],
            [
              143.8946646,
              -37.6260509
            ],
            [
              143.8944113,
              -37.6260259
            ],
            [
              143.894401,
              -37.6260814
            ],
            [
              143.8943853,
              -37.6260795
            ],
            [
              143.8943639,
              -37.6260784
            ],
            [
              143.8943673,
              -37.6260573
            ],
            [
              143.8935426,
              -37.6259727
            ]
          ]
        ]
      },
      "id": "E"
    },
    {
      "type": "Feature",
      "properties": {
        "@id": "way/130330661",
        "building": "university",
        "layer": "1",
        "name": "K Building Children's Centre",
        "source": "Bing",
        "page": "buildings/K_Building/Level_1.html"
      },
      "geometry": {
        "type": "Polygon",
        "coordinates": [
          [
            [
              143.8936163,
              -37.62562
            ],
            [
              143.8936351,
              -37.625654
            ],
            [
              143.8936364,
              -37.6256564
            ],
            [
              143.8936459,
              -37.6256736
            ],
            [
              143.8936636,
              -37.6257056
            ],
            [
              143.8937644,
              -37.6256722
            ],
            [
              143.893761,
              -37.6256662
            ],
            [
              143.8937899,
              -37.6256556
            ],
            [
              143.8938153,
              -37.6256468
            ],
            [
              143.8938195,
              -37.625653
            ],
            [
              143.89406,
              -37.6255734
            ],
            [
              143.8940341,
              -37.6255241
            ],
            [
              143.8939969,
              -37.6255372
            ],
            [
              143.8939698,
              -37.6254854
            ],
            [
              143.8939084,
              -37.6255029
            ],
            [
              143.8939013,
              -37.6254897
            ],
            [
              143.8938923,
              -37.6254927
            ],
            [
              143.8936992,
              -37.6255574
            ],
            [
              143.8937151,
              -37.6255846
            ],
            [
              143.8936163,
              -37.62562
            ]
          ]
        ]
      },
      "id": "K"
    },
    {
      "type": "Feature",
      "properties": {
        "@id": "way/130330662",
        "building": "university",
        "name": "F Building",
        "source": "Bing",
        "page": "buildings/F_Building/Level_2.html"
      },
      "geometry": {
        "type": "Polygon",
        "coordinates": [
          [
            [
              143.8934469,
              -37.6265916
            ],
            [
              143.8934329,
              -37.6266772
            ],
            [
              143.893429,
              -37.6267037
            ],
            [
              143.8934239,
              -37.626733
            ],
            [
              143.8941628,
              -37.6268041
            ],
            [
              143.8942529,
              -37.6268144
            ],
            [
              143.8942959,
              -37.6268194
            ],
            [
              143.894304,
              -37.6267701
            ],
            [
              143.8943112,
              -37.6267294
            ],
            [
              143.8943867,
              -37.6267382
            ],
            [
              143.8943793,
              -37.6267688
            ],
            [
              143.8946766,
              -37.6268014
            ],
            [
              143.8947111,
              -37.6265636
            ],
            [
              143.8945809,
              -37.6265492
            ],
            [
              143.8945522,
              -37.6267011
            ],
            [
              143.8944001,
              -37.6266891
            ],
            [
              143.8944269,
              -37.6265333
            ],
            [
              143.8942841,
              -37.6265183
            ],
            [
              143.8942458,
              -37.6265155
            ],
            [
              143.8942254,
              -37.6266686
            ],
            [
              143.8939071,
              -37.6266373
            ],
            [
              143.8939148,
              -37.6265572
            ],
            [
              143.8937769,
              -37.6265652
            ],
            [
              143.8937596,
              -37.6265678
            ],
            [
              143.8937799,
              -37.6266257
            ],
            [
              143.8934469,
              -37.6265916
            ]
          ]
        ]
      },
      "id": "F"
    },
    {
      "type": "Feature",
      "properties": {
        "@id": "way/130330663",
        "building": "yes",
        "name": "G Building - M B John Building",
        "source": "Bing",
        "page": "buildings/G_Building/Level_2.html"
      },
      "geometry": {
        "type": "Polygon",
        "coordinates": [
          [
            [
              143.8941429,
              -37.6269631
            ],
            [
              143.8941361,
              -37.6269989
            ],
            [
              143.8941132,
              -37.6271223
            ],
            [
              143.8933756,
              -37.62705
            ],
            [
              143.8933561,
              -37.6271884
            ],
            [
              143.8942669,
              -37.6272793
            ],
            [
              143.8943131,
              -37.626979
            ],
            [
              143.8941886,
              -37.6269666
            ],
            [
              143.8941429,
              -37.6269631
            ]
          ]
        ]
      },
      "id": "G"
    },
    {
      "type": "Feature",
      "properties": {
        "@id": "way/130330669",
        "building": "university",
        "name": "N4 - Print Centre"
      },
      "geometry": {
        "type": "Polygon",
        "coordinates": [
          [
            [
              143.8924005,
              -37.6272638
            ],
            [
              143.8923801,
              -37.6273781
            ],
            [
              143.8927533,
              -37.6274159
            ],
            [
              143.8927688,
              -37.6273186
            ],
            [
              143.8924825,
              -37.6272875
            ],
            [
              143.8924852,
              -37.6272735
            ],
            [
              143.8924005,
              -37.6272638
            ]
          ]
        ]
      },
      "id": "N4"
    },
    {
      "type": "Feature",
      "properties": {
        "@id": "way/130330670",
        "building": "university",
        "source": "Bing",
        "name": "N5"
      },
      "geometry": {
        "type": "Polygon",
        "coordinates": [
          [
            [
              143.8930059,
              -37.6273258
            ],
            [
              143.8929871,
              -37.6274402
            ],
            [
              143.8932027,
              -37.6274615
            ],
            [
              143.8932159,
              -37.6273462
            ],
            [
              143.8930059,
              -37.6273258
            ]
          ]
        ]
      },
      "id": "N5"
    },
    {
      "type": "Feature",
      "properties": {
        "@id": "way/130330677",
        "building": "university",
        "layer": "1",
        "name": "Caro Convention Centre",
        "source": "Bing"
      },
      "geometry": {
        "type": "Polygon",
        "coordinates": [
          [
            [
              143.8901578,
              -37.6265133
            ],
            [
              143.8901704,
              -37.6267404
            ],
            [
              143.8902181,
              -37.6267448
            ],
            [
              143.8902738,
              -37.62675
            ],
            [
              143.8902731,
              -37.6267284
            ],
            [
              143.8903404,
              -37.6267338
            ],
            [
              143.8903908,
              -37.626731
            ],
            [
              143.8903912,
              -37.6267396
            ],
            [
              143.8904511,
              -37.6267368
            ],
            [
              143.8904522,
              -37.6267454
            ],
            [
              143.8905113,
              -37.6267422
            ],
            [
              143.890512,
              -37.626752
            ],
            [
              143.8905717,
              -37.6267494
            ],
            [
              143.8905731,
              -37.6267575
            ],
            [
              143.89064,
              -37.6267549
            ],
            [
              143.8906489,
              -37.6267112
            ],
            [
              143.8906517,
              -37.6266898
            ],
            [
              143.890654,
              -37.6266728
            ],
            [
              143.890652,
              -37.6266225
            ],
            [
              143.8906474,
              -37.6265872
            ],
            [
              143.8906353,
              -37.6265367
            ],
            [
              143.8906217,
              -37.6265023
            ],
            [
              143.8904941,
              -37.6265056
            ],
            [
              143.8904988,
              -37.626529
            ],
            [
              143.8904386,
              -37.6265315
            ],
            [
              143.8904369,
              -37.6265401
            ],
            [
              143.8903776,
              -37.6265419
            ],
            [
              143.8903788,
              -37.6265499
            ],
            [
              143.8903193,
              -37.6265526
            ],
            [
              143.8903204,
              -37.6265603
            ],
            [
              143.8902609,
              -37.6265633
            ],
            [
              143.8902573,
              -37.6265117
            ],
            [
              143.8901578,
              -37.6265133
            ]
          ]
        ]
      },
      "id": "way/130330677"
    },
    {
      "type": "Feature",
      "properties": {
        "@id": "way/130330678",
        "building": "university",
        "name": "A Building",
        "source": "Bing",
        "page": "buildings/A_Building/Level_0.html"
      },
      "geometry": {
        "type": "Polygon",
        "coordinates": [
          [
            [
              143.8902181,
              -37.6267448
            ],
            [
              143.8902042,
              -37.6268774
            ],
            [
              143.8902858,
              -37.6268861
            ],
            [
              143.8902668,
              -37.6269936
            ],
            [
              143.8905504,
              -37.6270193
            ],
            [
              143.890498,
              -37.6273619
            ],
            [
              143.89083,
              -37.6273981
            ],
            [
              143.8908815,
              -37.6270781
            ],
            [
              143.891202,
              -37.627109
            ],
            [
              143.8912589,
              -37.6267574
            ],
            [
              143.8910881,
              -37.6267399
            ],
            [
              143.8910476,
              -37.6269873
            ],
            [
              143.8906562,
              -37.6269446
            ],
            [
              143.8906966,
              -37.6266954
            ],
            [
              143.8906517,
              -37.6266898
            ],
            [
              143.8906489,
              -37.6267112
            ],
            [
              143.89064,
              -37.6267549
            ],
            [
              143.8905731,
              -37.6267575
            ],
            [
              143.8905377,
              -37.6267588
            ],
            [
              143.8905169,
              -37.6268679
            ],
            [
              143.8904184,
              -37.6268579
            ],
            [
              143.8904315,
              -37.6267598
            ],
            [
              143.8902181,
              -37.6267448
            ]
          ]
        ]
      },
      "id": "A"
    },
    {
      "type": "Feature",
      "properties": {
        "@id": "way/130330680",
        "building": "yes",
        "name": "Central Store",
        "source": "Bing"
      },
      "geometry": {
        "type": "Polygon",
        "coordinates": [
          [
            [
              143.8949868,
              -37.6275598
            ],
            [
              143.8949434,
              -37.6278496
            ],
            [
              143.895139,
              -37.627868
            ],
            [
              143.8951824,
              -37.6275782
            ],
            [
              143.8949868,
              -37.6275598
            ]
          ]
        ]
      },
      "id": "CS"
    },
    {
      "type": "Feature",
      "properties": {
        "@id": "way/130330686",
        "building": "yes",
        "name": "FedUni Living",
        "source": "Bing"
      },
      "geometry": {
        "type": "Polygon",
        "coordinates": [
          [
            [
              143.8938784,
              -37.6237818
            ],
            [
              143.8936188,
              -37.6239417
            ],
            [
              143.8937474,
              -37.6240711
            ],
            [
              143.8938375,
              -37.6240153
            ],
            [
              143.8939052,
              -37.6239996
            ],
            [
              143.8939262,
              -37.6240183
            ],
            [
              143.89399,
              -37.6239116
            ],
            [
              143.8938784,
              -37.6237818
            ]
          ]
        ]
      },
      "id": "FL"
    },
    {
      "type": "Feature",
      "properties": {
        "@id": "way/130331913",
        "building": "university",
        "name": "Q Building - Tin Shed",
        "source": "Bing",
        "page": "buildings/Q_Building/Q1_Level_6.html"
      },
      "geometry": {
        "type": "Polygon",
        "coordinates": [
          [
            [
              143.8892846,
              -37.6243017
            ],
            [
              143.8892798,
              -37.6243551
            ],
            [
              143.8892981,
              -37.6243562
            ],
            [
              143.8892745,
              -37.6246507
            ],
            [
              143.8892571,
              -37.6246509
            ],
            [
              143.8892521,
              -37.6247102
            ],
            [
              143.8894151,
              -37.6247194
            ],
            [
              143.889417,
              -37.6247042
            ],
            [
              143.8895271,
              -37.6247084
            ],
            [
              143.8895249,
              -37.6247362
            ],
            [
              143.8896171,
              -37.6247423
            ],
            [
              143.8896188,
              -37.6247301
            ],
            [
              143.8896753,
              -37.624734
            ],
            [
              143.8896795,
              -37.6246744
            ],
            [
              143.8896627,
              -37.6246731
            ],
            [
              143.8896894,
              -37.6243764
            ],
            [
              143.8897059,
              -37.6243768
            ],
            [
              143.8897104,
              -37.6243237
            ],
            [
              143.8892846,
              -37.6243017
            ]
          ]
        ]
      },
      "id": "Q"
    },
    {
      "type": "Feature",
      "properties": {
        "@id": "way/243724098",
        "building": "university",
        "name": "Y Building", 
        "page": "buildings/Y_Building/Level_0_East.html"
      },
      "geometry": {
        "type": "Polygon",
        "coordinates": [
          [
            [
              143.8913718,
              -37.6277086
            ],
            [
              143.8911408,
              -37.6276898
            ],
            [
              143.8911392,
              -37.627718
            ],
            [
              143.8904322,
              -37.6275291
            ],
            [
              143.8903599,
              -37.6277099
            ],
            [
              143.8912058,
              -37.6279433
            ],
            [
              143.8912618,
              -37.6278863
            ],
            [
              143.8919176,
              -37.6279549
            ],
            [
              143.8919471,
              -37.627766
            ],
            [
              143.8913718,
              -37.6277086
            ]
          ]
        ]
      },
      "id": "Y"
    },
    {
      "type": "Feature",
      "properties": {
        "@id": "way/313510339",
        "building": "university",
        "name": "H Building",
        "page": "buildings/H_Building/Level_1.html"
      },
      "geometry": {
        "type": "Polygon",
        "coordinates": [
          [
            [
              143.8922953,
              -37.6271726
            ],
            [
              143.8925565,
              -37.6271957
            ],
            [
              143.8925875,
              -37.6269919
            ],
            [
              143.8925047,
              -37.6269824
            ],
            [
              143.8925132,
              -37.6269257
            ],
            [
              143.8929226,
              -37.6269693
            ],
            [
              143.8931002,
              -37.6269838
            ],
            [
              143.8931113,
              -37.6269144
            ],
            [
              143.8931191,
              -37.6268616
            ],
            [
              143.8930327,
              -37.6268535
            ],
            [
              143.8930492,
              -37.6267319
            ],
            [
              143.8930785,
              -37.626734
            ],
            [
              143.8930941,
              -37.6266375
            ],
            [
              143.8930646,
              -37.6265969
            ],
            [
              143.8929947,
              -37.6265904
            ],
            [
              143.892864,
              -37.6265791
            ],
            [
              143.8927756,
              -37.6265704
            ],
            [
              143.8927736,
              -37.6265903
            ],
            [
              143.8927331,
              -37.6266253
            ],
            [
              143.8927247,
              -37.6266985
            ],
            [
              143.8927295,
              -37.626699
            ],
            [
              143.8927502,
              -37.6267009
            ],
            [
              143.892745,
              -37.6267432
            ],
            [
              143.8927338,
              -37.626822
            ],
            [
              143.8927134,
              -37.6268205
            ],
            [
              143.8927131,
              -37.6268073
            ],
            [
              143.892622,
              -37.6267999
            ],
            [
              143.8926181,
              -37.6268127
            ],
            [
              143.8925095,
              -37.6268006
            ],
            [
              143.8925031,
              -37.6268378
            ],
            [
              143.8924635,
              -37.626834
            ],
            [
              143.8924275,
              -37.626832
            ],
            [
              143.8924148,
              -37.6269167
            ],
            [
              143.8924279,
              -37.6269192
            ],
            [
              143.8924203,
              -37.6269742
            ],
            [
              143.8923271,
              -37.6269662
            ],
            [
              143.8922953,
              -37.6271726
            ]
          ]
        ]
      },
      "id": "H"
    },
    {
      "type": "Feature",
      "properties": {
        "@id": "way/313510340",
        "building": "university",
        "name": "S Building",
        "page": "buildings/S_Building/Level_0.html"
      },
      "geometry": {
        "type": "Polygon",
        "coordinates": [
          [
            [
              143.8924363,
              -37.6263631
            ],
            [
              143.8924269,
              -37.6264318
            ],
            [
              143.8924158,
              -37.6265022
            ],
            [
              143.8928689,
              -37.6265465
            ],
            [
              143.8929986,
              -37.6265583
            ],
            [
              143.8931364,
              -37.6265734
            ],
            [
              143.8931078,
              -37.6267625
            ],
            [
              143.8931614,
              -37.6267682
            ],
            [
              143.8931408,
              -37.6269167
            ],
            [
              143.8931354,
              -37.6269523
            ],
            [
              143.8932444,
              -37.6269627
            ],
            [
              143.8932444,
              -37.626978
            ],
            [
              143.8932945,
              -37.6269821
            ],
            [
              143.8933005,
              -37.6269479
            ],
            [
              143.8933022,
              -37.6269351
            ],
            [
              143.8932936,
              -37.6269339
            ],
            [
              143.8933198,
              -37.6267846
            ],
            [
              143.8933443,
              -37.6267863
            ],
            [
              143.8933566,
              -37.6266986
            ],
            [
              143.8933605,
              -37.6266708
            ],
            [
              143.8933637,
              -37.6266311
            ],
            [
              143.8932931,
              -37.626622
            ],
            [
              143.8932981,
              -37.6265882
            ],
            [
              143.8934078,
              -37.6265977
            ],
            [
              143.893429,
              -37.6264569
            ],
            [
              143.8930424,
              -37.6264201
            ],
            [
              143.8927913,
              -37.6263957
            ],
            [
              143.892771,
              -37.6263937
            ],
            [
              143.8927536,
              -37.6263918
            ],
            [
              143.8924363,
              -37.6263631
            ]
          ]
        ]
      },
      "id": "S"
    },
    {
      "type": "Feature",
      "properties": {
        "@id": "way/313510402",
        "building": "university",
        "name": "Q Building",
        "page": "buildings/Q_Building/Q1_Level_6.html"
      },
      "geometry": {
        "type": "Polygon",
        "coordinates": [
          [
            [
              143.8892312,
              -37.6250619
            ],
            [
              143.8896772,
              -37.6250883
            ],
            [
              143.8896953,
              -37.6248679
            ],
            [
              143.8896985,
              -37.6248296
            ],
            [
              143.8895483,
              -37.6248215
            ],
            [
              143.8892529,
              -37.6248057
            ],
            [
              143.8892312,
              -37.6250619
            ]
          ]
        ]
      },
      "id": "Q"
    },
    {
      "type": "Feature",
      "properties": {
        "@id": "way/313510596",
        "building": "university",
        "name": "T Building",
        "page": "buildings/T_Building/Level_0.html",
        "roomPrefix": "T[0-3]",
        "roomPattern": "^T\\d{0,3}$"
      },
      "geometry": {
        "type": "Polygon",
        "coordinates": [
          [
            [
              143.8913467,
              -37.6267636
            ],
            [
              143.8912975,
              -37.6270675
            ],
            [
              143.8914836,
              -37.6270873
            ],
            [
              143.8914965,
              -37.6269807
            ],
            [
              143.892048,
              -37.6270362
            ],
            [
              143.8921873,
              -37.6270485
            ],
            [
              143.8922096,
              -37.6269388
            ],
            [
              143.8921051,
              -37.6269289
            ],
            [
              143.8921186,
              -37.6268353
            ],
            [
              143.8920927,
              -37.6268329
            ],
            [
              143.892114,
              -37.6266924
            ],
            [
              143.8923116,
              -37.6267087
            ],
            [
              143.8923369,
              -37.6265543
            ],
            [
              143.8921545,
              -37.6265373
            ],
            [
              143.8921358,
              -37.6265356
            ],
            [
              143.892121,
              -37.6265342
            ],
            [
              143.8918053,
              -37.6265015
            ],
            [
              143.8916121,
              -37.6264827
            ],
            [
              143.8915937,
              -37.6266058
            ],
            [
              143.8915881,
              -37.6266389
            ],
            [
              143.8917799,
              -37.6266565
            ],
            [
              143.8917588,
              -37.6268019
            ],
            [
              143.8917802,
              -37.6268028
            ],
            [
              143.8917695,
              -37.6268919
            ],
            [
              143.8916861,
              -37.6268851
            ],
            [
              143.891518,
              -37.6268679
            ],
            [
              143.8915311,
              -37.6267825
            ],
            [
              143.8913467,
              -37.6267636
            ]
          ]
        ]
      },
      "id": "T"
    },
    {
      "type": "Feature",
      "properties": {
        "@id": "way/313510597",
        "building": "university",
        "name": "D Building",
        "page": "buildings/D_Building/Level_0.html"
      },
      "geometry": {
        "type": "Polygon",
        "coordinates": [
          [
            [
              143.8915607,
              -37.6266333
            ],
            [
              143.8915657,
              -37.6266031
            ],
            [
              143.8915937,
              -37.6266058
            ],
            [
              143.8916121,
              -37.6264827
            ],
            [
              143.891616,
              -37.6264569
            ],
            [
              143.8916239,
              -37.6264089
            ],
            [
              143.8916084,
              -37.6264074
            ],
            [
              143.8916163,
              -37.6263539
            ],
            [
              143.891603,
              -37.6263527
            ],
            [
              143.8916109,
              -37.6262986
            ],
            [
              143.8915982,
              -37.6262975
            ],
            [
              143.8916009,
              -37.6262792
            ],
            [
              143.8916103,
              -37.626274
            ],
            [
              143.8916145,
              -37.6262447
            ],
            [
              143.8916005,
              -37.6262437
            ],
            [
              143.8916051,
              -37.626213
            ],
            [
              143.8914995,
              -37.6262036
            ],
            [
              143.891498,
              -37.6262338
            ],
            [
              143.8914844,
              -37.6262337
            ],
            [
              143.8914797,
              -37.6262903
            ],
            [
              143.8914689,
              -37.6262902
            ],
            [
              143.8914619,
              -37.6263362
            ],
            [
              143.8914405,
              -37.6263358
            ],
            [
              143.8914358,
              -37.6263659
            ],
            [
              143.8914408,
              -37.6263846
            ],
            [
              143.891447,
              -37.6264061
            ],
            [
              143.8914491,
              -37.6264246
            ],
            [
              143.8914486,
              -37.6264476
            ],
            [
              143.8913923,
              -37.6264447
            ],
            [
              143.8913883,
              -37.6264682
            ],
            [
              143.8913861,
              -37.6265002
            ],
            [
              143.89144,
              -37.6265076
            ],
            [
              143.8914312,
              -37.6265316
            ],
            [
              143.8914203,
              -37.6265527
            ],
            [
              143.8914014,
              -37.6265834
            ],
            [
              143.8913962,
              -37.6266173
            ],
            [
              143.8914673,
              -37.6266247
            ],
            [
              143.8914662,
              -37.6266359
            ],
            [
              143.8915452,
              -37.6266438
            ],
            [
              143.8915463,
              -37.6266334
            ],
            [
              143.8915607,
              -37.6266333
            ]
          ]
        ]
      },
      "id": "D"
    },
    
    {
      "type": "Feature",
      "properties": {
        "@id": "way/315278382",
        "building": "yes",
        "name": "Unknown, Building Road"
      },
      "geometry": {
        "type": "Polygon",
        "coordinates": [
          [
            [
              143.8941266,
              -37.627603
            ],
            [
              143.8942149,
              -37.6276117
            ],
            [
              143.8942164,
              -37.6276021
            ],
            [
              143.8942967,
              -37.62761
            ],
            [
              143.8943163,
              -37.6274837
            ],
            [
              143.8941477,
              -37.6274672
            ],
            [
              143.8941266,
              -37.627603
            ]
          ]
        ]
      },
      "id": "way/315278382"
    },
    {
      "type": "Feature",
      "properties": {
        "@id": "way/315278383",
        "building": "yes",
        "name": "Unknown, Building Road"
      },
      "geometry": {
        "type": "Polygon",
        "coordinates": [
          [
            [
              143.8939411,
              -37.6274414
            ],
            [
              143.8941191,
              -37.6274609
            ],
            [
              143.8941337,
              -37.6273774
            ],
            [
              143.8939557,
              -37.6273579
            ],
            [
              143.8939411,
              -37.6274414
            ]
          ]
        ]
      },
      "id": "way/315278383"
    },
    {
      "type": "Feature",
      "properties": {
        "@id": "way/315278384",
        "building": "yes",
        "name": "Unknown, Building Road"
      },
      "geometry": {
        "type": "Polygon",
        "coordinates": [
          [
            [
              143.8936005,
              -37.6273762
            ],
            [
              143.8937193,
              -37.6273861
            ],
            [
              143.8937198,
              -37.6273747
            ],
            [
              143.8938105,
              -37.6273859
            ],
            [
              143.8938293,
              -37.6272898
            ],
            [
              143.8937337,
              -37.6272796
            ],
            [
              143.8937351,
              -37.6272701
            ],
            [
              143.8936188,
              -37.627259
            ],
            [
              143.8936005,
              -37.6273762
            ]
          ]
        ]
      },
      "id": "way/315278384"
    },
    {
      "type": "Feature",
      "properties": {
        "@id": "way/315278385",
        "building": "roof",
        "layer": "1",
        "name": "Walkway F to E"
      },
      "geometry": {
        "type": "Polygon",
        "coordinates": [
          [
            [
              143.8941886,
              -37.6269666
            ],
            [
              143.8942078,
              -37.6268409
            ],
            [
              143.8942495,
              -37.6268448
            ],
            [
              143.8942529,
              -37.6268144
            ],
            [
              143.8941628,
              -37.6268041
            ],
            [
              143.8941423,
              -37.6269228
            ],
            [
              143.8941224,
              -37.6269204
            ],
            [
              143.8941101,
              -37.626997
            ],
            [
              143.8941361,
              -37.6269989
            ],
            [
              143.8941429,
              -37.6269631
            ],
            [
              143.8941886,
              -37.6269666
            ]
          ]
        ]
      },
      "id": "way/315278385"
    },
    {
      "type": "Feature",
      "properties": {
        "@id": "way/315280109",
        "building": "university",
        "name": "Unknown, attached to D an T"
      },
      "geometry": {
        "type": "Polygon",
        "coordinates": [
          [
            [
              143.8916865,
              -37.6262606
            ],
            [
              143.8916563,
              -37.6264604
            ],
            [
              143.891616,
              -37.6264569
            ],
            [
              143.8916121,
              -37.6264827
            ],
            [
              143.8918053,
              -37.6265015
            ],
            [
              143.89183,
              -37.6263267
            ],
            [
              143.8917466,
              -37.626318
            ],
            [
              143.8917534,
              -37.6262668
            ],
            [
              143.8916865,
              -37.6262606
            ]
          ]
        ]
      },
      "id": "way/315280109"
    }
    
    
    
    
    
    
    
   

    
  ]
}